{
  "type": "FeatureCollection",
  "features": [
    {
      "type": "Feature",
      "properties": {
        "norad_id": 67011,
        "name": "STARLINK-36167",
        "group": "last-30-days",
        "lat": -52.94858330833832,
        "lon": -99.4721016327179,
        "alt_km": 335.3175498308956,
        "timestamp": "2025-12-24T14:43:27.723323+00:00",
        "meta_object_name": "STARLINK-36167",
        "meta_object_id": "2025-293J",
        "meta_epoch": "2025-12-24T06:00:02.000160",
        "meta_mean_motion": 15.81092185,
        "meta_eccentricity": 0.000365,
        "meta_inclination": 69.9925,
        "meta_ra_of_asc_node": 290.4246,
        "meta_arg_of_pericenter": 278.3878,
        "meta_mean_anomaly": 116.0166,
        "meta_ephemeris_type": 0,
        "meta_classification_type": "U",
        "meta_norad_cat_id": 67011,
        "meta_element_set_no": 999,
        "meta_rev_at_epoch": 196,
        "meta_bstar": -0.0092293567,
        "meta_mean_motion_dot": -0.01583765,
        "meta_mean_motion_ddot": 0,
        "tle_line1": "1 67011U 25293J   25358.25002315 -.01583765  00000+0 -92294-2 0  9991",
        "tle_line2": "2 67011  69.9925 290.4246 0003650 278.3878 116.0166 15.81092185  1968"
      },
      "geometry": {
        "type": "Point",
        "coordinates": [
          -99.4721016327179,
          -52.94858330833832
        ]
      }
    },
    {
      "type": "Feature",
      "properties": {
        "norad_id": 67012,
        "name": "STARLINK-36175",
        "group": "last-30-days",
        "lat": -48.93821154744974,
        "lon": -95.3436964129478,
        "alt_km": 335.34631714467196,
        "timestamp": "2025-12-24T14:43:27.723337+00:00",
        "meta_object_name": "STARLINK-36175",
        "meta_object_id": "2025-293K",
        "meta_epoch": "2025-12-24T06:00:02.000160",
        "meta_mean_motion": 15.81058318,
        "meta_eccentricity": 0.00037211,
        "meta_inclination": 69.9925,
        "meta_ra_of_asc_node": 290.4192,
        "meta_arg_of_pericenter": 278.6014,
        "meta_mean_anomaly": 120.6334,
        "meta_ephemeris_type": 0,
        "meta_classification_type": "U",
        "meta_norad_cat_id": 67012,
        "meta_element_set_no": 999,
        "meta_rev_at_epoch": 196,
        "meta_bstar": -0.0092497159,
        "meta_mean_motion_dot": -0.01584707,
        "meta_mean_motion_ddot": 0,
        "tle_line1": "1 67012U 25293K   25358.25002315 -.01584707  00000+0 -92497-2 0  9994",
        "tle_line2": "2 67012  69.9925 290.4192 0003721 278.6014 120.6334 15.81058318  1961"
      },
      "geometry": {
        "type": "Point",
        "coordinates": [
          -95.3436964129478,
          -48.93821154744974
        ]
      }
    },
    {
      "type": "Feature",
      "properties": {
        "norad_id": 67013,
        "name": "STARLINK-35856",
        "group": "last-30-days",
        "lat": -46.73923965247403,
        "lon": -93.40324271719399,
        "alt_km": 335.64804792647374,
        "timestamp": "2025-12-24T14:43:27.723349+00:00",
        "meta_object_name": "STARLINK-35856",
        "meta_object_id": "2025-293L",
        "meta_epoch": "2025-12-24T06:00:02.000160",
        "meta_mean_motion": 15.81038533,
        "meta_eccentricity": 0.00035921,
        "meta_inclination": 69.9923,
        "meta_ra_of_asc_node": 290.4156,
        "meta_arg_of_pericenter": 270.8997,
        "meta_mean_anomaly": 130.9158,
        "meta_ephemeris_type": 0,
        "meta_classification_type": "U",
        "meta_norad_cat_id": 67013,
        "meta_element_set_no": 999,
        "meta_rev_at_epoch": 196,
        "meta_bstar": -0.0092494354,
        "meta_mean_motion_dot": -0.01583257,
        "meta_mean_motion_ddot": 0,
        "tle_line1": "1 67013U 25293L   25358.25002315 -.01583257  00000+0 -92494-2 0  9991",
        "tle_line2": "2 67013  69.9923 290.4156 0003592 270.8997 130.9158 15.81038533  1965"
      },
      "geometry": {
        "type": "Point",
        "coordinates": [
          -93.40324271719399,
          -46.73923965247403
        ]
      }
    },
    {
      "type": "Feature",
      "properties": {
        "norad_id": 67014,
        "name": "STARLINK-36207",
        "group": "last-30-days",
        "lat": -44.63578027107851,
        "lon": -91.71059442542743,
        "alt_km": 335.65010773294034,
        "timestamp": "2025-12-24T14:43:27.723361+00:00",
        "meta_object_name": "STARLINK-36207",
        "meta_object_id": "2025-293M",
        "meta_epoch": "2025-12-24T06:00:02.000160",
        "meta_mean_motion": 15.81017667,
        "meta_eccentricity": 0.0003617,
        "meta_inclination": 69.9929,
        "meta_ra_of_asc_node": 290.4134,
        "meta_arg_of_pericenter": 272.4551,
        "meta_mean_anomaly": 131.8069,
        "meta_ephemeris_type": 0,
        "meta_classification_type": "U",
        "meta_norad_cat_id": 67014,
        "meta_element_set_no": 999,
        "meta_rev_at_epoch": 202,
        "meta_bstar": -0.00928284,
        "meta_mean_motion_dot": -0.01586934,
        "meta_mean_motion_ddot": 0,
        "tle_line1": "1 67014U 25293M   25358.25002315 -.01586934  00000+0 -92828-2 0  9998",
        "tle_line2": "2 67014  69.9929 290.4134 0003617 272.4551 131.8069 15.81017667  2024"
      },
      "geometry": {
        "type": "Point",
        "coordinates": [
          -91.71059442542743,
          -44.63578027107851
        ]
      }
    },
    {
      "type": "Feature",
      "properties": {
        "norad_id": 67015,
        "name": "STARLINK-36093",
        "group": "last-30-days",
        "lat": -40.403805110881684,
        "lon": -88.69939956809134,
        "alt_km": 335.7569823641261,
        "timestamp": "2025-12-24T14:43:27.723371+00:00",
        "meta_object_name": "STARLINK-36093",
        "meta_object_id": "2025-293N",
        "meta_epoch": "2025-12-24T06:00:02.000160",
        "meta_mean_motion": 15.80983194,
        "meta_eccentricity": 0.00035663,
        "meta_inclination": 69.9923,
        "meta_ra_of_asc_node": 290.4072,
        "meta_arg_of_pericenter": 271.6487,
        "meta_mean_anomaly": 137.4425,
        "meta_ephemeris_type": 0,
        "meta_classification_type": "U",
        "meta_norad_cat_id": 67015,
        "meta_element_set_no": 999,
        "meta_rev_at_epoch": 196,
        "meta_bstar": -0.0092923445,
        "meta_mean_motion_dot": -0.01586078,
        "meta_mean_motion_ddot": 0,
        "tle_line1": "1 67015U 25293N   25358.25002315 -.01586078  00000+0 -92923-2 0  9994",
        "tle_line2": "2 67015  69.9923 290.4072 0003566 271.6487 137.4425 15.80983194  1968"
      },
      "geometry": {
        "type": "Point",
        "coordinates": [
          -88.69939956809134,
          -40.403805110881684
        ]
      }
    },
    {
      "type": "Feature",
      "properties": {
        "norad_id": 67016,
        "name": "STARLINK-36120",
        "group": "last-30-days",
        "lat": -42.62909234112055,
        "lon": -90.22480788424782,
        "alt_km": 335.6923637677146,
        "timestamp": "2025-12-24T14:43:27.723381+00:00",
        "meta_object_name": "STARLINK-36120",
        "meta_object_id": "2025-293P",
        "meta_epoch": "2025-12-24T06:00:02.000160",
        "meta_mean_motion": 15.810011,
        "meta_eccentricity": 0.00036173,
        "meta_inclination": 69.9925,
        "meta_ra_of_asc_node": 290.4104,
        "meta_arg_of_pericenter": 271.8245,
        "meta_mean_anomaly": 134.737,
        "meta_ephemeris_type": 0,
        "meta_classification_type": "U",
        "meta_norad_cat_id": 67016,
        "meta_element_set_no": 999,
        "meta_rev_at_epoch": 196,
        "meta_bstar": -0.0092705143,
        "meta_mean_motion_dot": -0.01584023,
        "meta_mean_motion_ddot": 0,
        "tle_line1": "1 67016U 25293P   25358.25002315 -.01584023  00000+0 -92705-2 0  9991",
        "tle_line2": "2 67016  69.9925 290.4104 0003617 271.8245 134.7370 15.81001100  1966"
      },
      "geometry": {
        "type": "Point",
        "coordinates": [
          -90.22480788424782,
          -42.62909234112055
        ]
      }
    },
    {
      "type": "Feature",
      "properties": {
        "norad_id": 67017,
        "name": "STARLINK-35498",
        "group": "last-30-days",
        "lat": -38.27588068530365,
        "lon": -87.34386110233332,
        "alt_km": 335.6077202447168,
        "timestamp": "2025-12-24T14:43:27.723393+00:00",
        "meta_object_name": "STARLINK-35498",
        "meta_object_id": "2025-293Q",
        "meta_epoch": "2025-12-24T06:00:02.000160",
        "meta_mean_motion": 15.80975974,
        "meta_eccentricity": 0.0003827,
        "meta_inclination": 69.992,
        "meta_ra_of_asc_node": 290.4041,
        "meta_arg_of_pericenter": 272.9508,
        "meta_mean_anomaly": 138.5287,
        "meta_ephemeris_type": 0,
        "meta_classification_type": "U",
        "meta_norad_cat_id": 67017,
        "meta_element_set_no": 999,
        "meta_rev_at_epoch": 215,
        "meta_bstar": -0.00935252,
        "meta_mean_motion_dot": -0.01594857,
        "meta_mean_motion_ddot": 0,
        "tle_line1": "1 67017U 25293Q   25358.25002315 -.01594857  00000+0 -93525-2 0  9999",
        "tle_line2": "2 67017  69.9920 290.4041 0003827 272.9508 138.5287 15.80975974  2158"
      },
      "geometry": {
        "type": "Point",
        "coordinates": [
          -87.34386110233332,
          -38.27588068530365
        ]
      }
    }
  ]
}